[{"OBJECT_NAME":"STARLINK-5181","OBJECT_ID":"2022-136V","EPOCH":"2026-03-09T22:10:29.743104","MEAN_MOTION":15.08832087,"ECCENTRICITY":0.00013371,"INCLINATION":53.219,"RA_OF_ASC_NODE":342.7628,"ARG_OF_PERICENTER":105.276,"MEAN_ANOMALY":254.838,"EPHEMERIS_TYPE":0,"CLASSIFICATION_TYPE":"U","NORAD_CAT_ID":54070,"ELEMENT_SET_NO":999,"REV_AT_EPOCH":18688,"BSTAR":-1.316999e-5,"MEAN_MOTION_DOT":-4.97e-6,"MEAN_MOTION_DDOT":0},{"OBJECT_NAME":"OBJECT T","OBJECT_ID":"2018-099T","EPOCH":"2026-03-09T14:32:29.418720","MEAN_MOTION":15.09436097,"ECCENTRICITY":0.0004517,"INCLINATION":97.4347,"RA_OF_ASC_NODE":115.9313,"ARG_OF_PERICENTER":320.9739,"MEAN_ANOMALY":39.1164,"EPHEMERIS_TYPE":0,"CLASSIFICATION_TYPE":"U","NORAD_CAT_ID":43775,"ELEMENT_SET_NO":999,"REV_AT_EPOCH":39729,"BSTAR":0.00032877,"MEAN_MOTION_DOT":5.2e-5,"MEAN_MOTION_DDOT":0}]
